start=new Date('2022-06-08T00:00:00.000Z').valueOf();
sats=[{"MEAN_ELEMENT_THEORY":"SGP4","RA_OF_ASC_NODE":"0.9197","EPOCH":"2022-06-07T20:07:59.954304","OBJECT_NAME":"STARLINK-1925","OBJECT_TYPE":"PAYLOAD","SITE":"AFETR","GP_ID":"205570818","FILE":"3485035","RCS_SIZE":"LARGE","OBJECT_ID":"2020-074T","MEAN_MOTION_DDOT":"0.0000000000000","ECCENTRICITY":"0.00017830","ELEMENT_SET_NO":"999","TIME_SYSTEM":"UTC","CENTER_NAME":"EARTH","ARG_OF_PERICENTER":"69.9962","TLE_LINE1":"1 46756U 20074T   22158.83888836  .00000739  00000-0  72653-4 0  9997","NORAD_CAT_ID":"46756","PERIOD":"95.747","DECAY_DATE":null,"INCLINATION":"53.0547","EPHEMERIS_TYPE":"0","LAUNCH_DATE":"2020-10-24","SEMIMAJOR_AXIS":"6932.839","TLE_LINE2":"2 46756  53.0547   0.9197 0001783  69.9962 290.1218 15.03959398 90004","MEAN_MOTION_DOT":"0.00000739","REV_AT_EPOCH":"9000","MEAN_ANOMALY":"290.1218","BSTAR":"0.00007265300000","CLASSIFICATION_TYPE":"U","APOAPSIS":"555.940","MEAN_MOTION":"15.03959398","COUNTRY_CODE":"US","REF_FRAME":"TEME","PERIAPSIS":"553.468"},{"GP_ID":"205594549","FILE":"3485136","MEAN_ELEMENT_THEORY":"SGP4","RA_OF_ASC_NODE":"1.9373","EPOCH":"2022-06-07T14:18:47.202624","OBJECT_NAME":"STARLINK-1926","SITE":"AFETR","OBJECT_TYPE":"PAYLOAD","ECCENTRICITY":"0.00012580","ELEMENT_SET_NO":"999","TIME_SYSTEM":"UTC","RCS_SIZE":"LARGE","OBJECT_ID":"2020-074U","MEAN_MOTION_DDOT":"0.0000000000000","INCLINATION":"53.0560","LAUNCH_DATE":"2020-10-24","SEMIMAJOR_AXIS":"6925.368","EPHEMERIS_TYPE":"0","TLE_LINE2":"2 46757  53.0560   1.9373 0001258  69.2025 290.9099 15.06393748 89947","CENTER_NAME":"EARTH","TLE_LINE1":"1 46757U 20074U   22158.59637966 -.00000613  00000-0 -22294-4 0  9996","ARG_OF_PERICENTER":"69.2025","NORAD_CAT_ID":"46757","PERIOD":"95.593","DECAY_DATE":null,"MEAN_MOTION":"15.06393748","COUNTRY_CODE":"US","REF_FRAME":"TEME","PERIAPSIS":"546.362","MEAN_MOTION_DOT":"-0.00000613","REV_AT_EPOCH":"8994","BSTAR":"-0.00002229400000","CLASSIFICATION_TYPE":"U","MEAN_ANOMALY":"290.9099","APOAPSIS":"548.104"},{"DECAY_DATE":null,"PERIOD":"95.592","NORAD_CAT_ID":"46758","ARG_OF_PERICENTER":"51.7780","TLE_LINE1":"1 46758U 20074V   22158.86541434  .00001862  00000-0  14384-3 0  9996","CENTER_NAME":"EARTH","TLE_LINE2":"2 46758  53.0549   0.4828 0001946  51.7780 308.3384 15.06403566 90013","LAUNCH_DATE":"2020-10-24","SEMIMAJOR_AXIS":"6925.338","EPHEMERIS_TYPE":"0","INCLINATION":"53.0549","APOAPSIS":"548.550","MEAN_ANOMALY":"308.3384","BSTAR":"0.00014384000000","CLASSIFICATION_TYPE":"U","REV_AT_EPOCH":"9001","MEAN_MOTION_DOT":"0.00001862","PERIAPSIS":"545.855","REF_FRAME":"TEME","COUNTRY_CODE":"US","MEAN_MOTION":"15.06403566","OBJECT_TYPE":"PAYLOAD","SITE":"AFETR","OBJECT_NAME":"STARLINK-1928","EPOCH":"2022-06-07T20:46:11.798976","RA_OF_ASC_NODE":"0.4828","MEAN_ELEMENT_THEORY":"SGP4","FILE":"3485021","GP_ID":"205570822","MEAN_MOTION_DDOT":"0.0000000000000","OBJECT_ID":"2020-074V","RCS_SIZE":"LARGE","TIME_SYSTEM":"UTC","ECCENTRICITY":"0.00019460","ELEMENT_SET_NO":"999"},{"OBJECT_NAME":"STARLINK-1833","OBJECT_TYPE":"PAYLOAD","SITE":"AFETR","EPOCH":"2022-06-07T20:39:33.844032","MEAN_ELEMENT_THEORY":"SGP4","RA_OF_ASC_NODE":"10.5145","FILE":"3485136","GP_ID":"205595044","MEAN_MOTION_DDOT":"0.0000000000000","OBJECT_ID":"2020-074W","RCS_SIZE":"LARGE","TIME_SYSTEM":"UTC","ECCENTRICITY":"0.00016130","ELEMENT_SET_NO":"999","DECAY_DATE":null,"NORAD_CAT_ID":"46759","PERIOD":"95.592","ARG_OF_PERICENTER":"72.2621","TLE_LINE1":"1 46759U 20074W   22158.86080838  .00000331  00000-0  41106-4 0  9996","CENTER_NAME":"EARTH","LAUNCH_DATE":"2020-10-24","SEMIMAJOR_AXIS":"6925.357","EPHEMERIS_TYPE":"0","TLE_LINE2":"2 46759  53.0570  10.5145 0001613  72.2621 287.8544 15.06397102 89841","INCLINATION":"53.0570","APOAPSIS":"548.340","REV_AT_EPOCH":"8984","MEAN_MOTION_DOT":"0.00000331","CLASSIFICATION_TYPE":"U","BSTAR":"0.00004110600000","MEAN_ANOMALY":"287.8544","PERIAPSIS":"546.105","COUNTRY_CODE":"US","REF_FRAME":"TEME","MEAN_MOTION":"15.06397102"},{"APOAPSIS":"548.383","CLASSIFICATION_TYPE":"U","BSTAR":"0.00006478900000","MEAN_ANOMALY":"298.7070","REV_AT_EPOCH":"8982","MEAN_MOTION_DOT":"0.00000684","PERIAPSIS":"546.036","REF_FRAME":"TEME","COUNTRY_CODE":"US","MEAN_MOTION":"15.06401354","DECAY_DATE":null,"PERIOD":"95.592","NORAD_CAT_ID":"46760","TLE_LINE1":"1 46760U 20074X   22158.67282394  .00000684  00000-0  64789-4 0  9991","ARG_OF_PERICENTER":"61.4090","CENTER_NAME":"EARTH","TLE_LINE2":"2 46760  53.0572  11.3577 0001694  61.4090 298.7070 15.06401354 89820","LAUNCH_DATE":"2020-10-24","SEMIMAJOR_AXIS":"6925.344","EPHEMERIS_TYPE":"0","INCLINATION":"53.0572","MEAN_MOTION_DDOT":"0.0000000000000","OBJECT_ID":"2020-074X","RCS_SIZE":"LARGE","TIME_SYSTEM":"UTC","ELEMENT_SET_NO":"999","ECCENTRICITY":"0.00016940","OBJECT_TYPE":"PAYLOAD","SITE":"AFETR","OBJECT_NAME":"STARLINK-1896","EPOCH":"2022-06-07T16:08:51.988416","RA_OF_ASC_NODE":"11.3577","MEAN_ELEMENT_THEORY":"SGP4","FILE":"3485136","GP_ID":"205593800"},{"GP_ID":"205594050","FILE":"3485136","EPOCH":"2022-06-07T18:28:32.202624","RA_OF_ASC_NODE":"335.1688","MEAN_ELEMENT_THEORY":"SGP4","OBJECT_TYPE":"PAYLOAD","SITE":"AFETR","OBJECT_NAME":"STARLINK-1902","ELEMENT_SET_NO":"999","ECCENTRICITY":"0.00039990","TIME_SYSTEM":"UTC","RCS_SIZE":"LARGE","MEAN_MOTION_DDOT":"0.0000000000000","OBJECT_ID":"2020-074AA","INCLINATION":"53.0543","TLE_LINE2":"2 46763  53.0543 335.1688 0003999  17.3181 342.7960 15.42129068 90348","SEMIMAJOR_AXIS":"6817.964","LAUNCH_DATE":"2020-10-24","EPHEMERIS_TYPE":"0","TLE_LINE1":"1 46763U 20074AA  22158.76981716  .00013942  00000-0  32954-3 0  9997","ARG_OF_PERICENTER":"17.3181","CENTER_NAME":"EARTH","DECAY_DATE":null,"PERIOD":"93.377","NORAD_CAT_ID":"46763","REF_FRAME":"TEME","COUNTRY_CODE":"US","MEAN_MOTION":"15.42129068","PERIAPSIS":"437.102","APOAPSIS":"442.555","MEAN_ANOMALY":"342.7960","BSTAR":"0.00032954000000","CLASSIFICATION_TYPE":"U","REV_AT_EPOCH":"9034","MEAN_MOTION_DOT":"0.00013942"},{"APOAPSIS":"548.414","MEAN_MOTION_DOT":"0.00001128","REV_AT_EPOCH":"8983","MEAN_ANOMALY":"294.6644","BSTAR":"0.00009461400000","CLASSIFICATION_TYPE":"U","PERIAPSIS":"545.976","COUNTRY_CODE":"US","REF_FRAME":"TEME","MEAN_MOTION":"15.06406055","DECAY_DATE":null,"NORAD_CAT_ID":"46764","PERIOD":"95.592","TLE_LINE1":"1 46764U 20074AB  22158.73180002  .00001128  00000-0  94614-4 0  9999","ARG_OF_PERICENTER":"65.4528","CENTER_NAME":"EARTH","LAUNCH_DATE":"2020-10-24","EPHEMERIS_TYPE":"0","SEMIMAJOR_AXIS":"6925.330","TLE_LINE2":"2 46764  53.0573  11.0944 0001760  65.4528 294.6644 15.06406055 89830","INCLINATION":"53.0573","MEAN_MOTION_DDOT":"0.0000000000000","OBJECT_ID":"2020-074AB","RCS_SIZE":"LARGE","TIME_SYSTEM":"UTC","ELEMENT_SET_NO":"999","ECCENTRICITY":"0.00017600","OBJECT_NAME":"STARLINK-1903","SITE":"AFETR","OBJECT_TYPE":"PAYLOAD","EPOCH":"2022-06-07T17:33:47.521728","MEAN_ELEMENT_THEORY":"SGP4","RA_OF_ASC_NODE":"11.0944","FILE":"3485136","GP_ID":"205594799"},{"INCLINATION":"53.0549","SEMIMAJOR_AXIS":"6925.336","LAUNCH_DATE":"2020-10-24","EPHEMERIS_TYPE":"0","TLE_LINE2":"2 46765  53.0549  10.5441 0001490  65.7482 294.3662 15.06404217 89848","CENTER_NAME":"EARTH","TLE_LINE1":"1 46765U 20074AC  22158.85343087  .00000883  00000-0  78156-4 0  9997","ARG_OF_PERICENTER":"65.7482","NORAD_CAT_ID":"46765","PERIOD":"95.592","DECAY_DATE":null,"MEAN_MOTION":"15.06404217","COUNTRY_CODE":"US","REF_FRAME":"TEME","PERIAPSIS":"546.169","MEAN_MOTION_DOT":"0.00000883","REV_AT_EPOCH":"8984","BSTAR":"0.00007815600000","CLASSIFICATION_TYPE":"U","MEAN_ANOMALY":"294.3662","APOAPSIS":"548.233","GP_ID":"205595545","FILE":"3485136","MEAN_ELEMENT_THEORY":"SGP4","RA_OF_ASC_NODE":"10.5441","EPOCH":"2022-06-07T20:28:56.427168","OBJECT_NAME":"STARLINK-1906","SITE":"AFETR","OBJECT_TYPE":"PAYLOAD","ELEMENT_SET_NO":"999","ECCENTRICITY":"0.00014900","TIME_SYSTEM":"UTC","RCS_SIZE":"LARGE","OBJECT_ID":"2020-074AC","MEAN_MOTION_DDOT":"0.0000000000000"},{"RCS_SIZE":"LARGE","OBJECT_ID":"2020-074AD","MEAN_MOTION_DDOT":"0.0000000000000","ELEMENT_SET_NO":"999","ECCENTRICITY":"0.00016510","TIME_SYSTEM":"UTC","MEAN_ELEMENT_THEORY":"SGP4","RA_OF_ASC_NODE":"10.5656","EPOCH":"2022-06-07T20:18:20.178432","OBJECT_NAME":"STARLINK-1916","OBJECT_TYPE":"PAYLOAD","SITE":"AFETR","GP_ID":"205594301","FILE":"3485136","REV_AT_EPOCH":"8985","MEAN_MOTION_DOT":"0.00000535","CLASSIFICATION_TYPE":"U","BSTAR":"0.00005480400000","MEAN_ANOMALY":"296.3340","APOAPSIS":"548.366","MEAN_MOTION":"15.06397118","COUNTRY_CODE":"US","REF_FRAME":"TEME","PERIAPSIS":"546.079","CENTER_NAME":"EARTH","ARG_OF_PERICENTER":"63.7818","TLE_LINE1":"1 46766U 20074AD  22158.84606688  .00000535  00000-0  54804-4 0  9994","NORAD_CAT_ID":"46766","PERIOD":"95.592","DECAY_DATE":null,"INCLINATION":"53.0571","LAUNCH_DATE":"2020-10-24","SEMIMAJOR_AXIS":"6925.357","EPHEMERIS_TYPE":"0","TLE_LINE2":"2 46766  53.0571  10.5656 0001651  63.7818 296.3340 15.06397118 89859"},{"FILE":"3485136","GP_ID":"205594550","OBJECT_TYPE":"PAYLOAD","SITE":"AFETR","OBJECT_NAME":"STARLINK-1917","EPOCH":"2022-06-07T21:00:47.837088","RA_OF_ASC_NODE":"10.4489","MEAN_ELEMENT_THEORY":"SGP4","TIME_SYSTEM":"UTC","ECCENTRICITY":"0.00016130","ELEMENT_SET_NO":"999","MEAN_MOTION_DDOT":"0.0000000000000","OBJECT_ID":"2020-074AE","RCS_SIZE":"LARGE","TLE_LINE2":"2 46767  53.0576  10.4489 0001613  64.6589 295.4567 15.06400861 89852","LAUNCH_DATE":"2020-10-24","SEMIMAJOR_AXIS":"6925.346","EPHEMERIS_TYPE":"0","INCLINATION":"53.0576","DECAY_DATE":null,"PERIOD":"95.592","NORAD_CAT_ID":"46767","TLE_LINE1":"1 46767U 20074AE  22158.87555367 -.00000987  00000-0 -47378-4 0  9996","ARG_OF_PERICENTER":"64.6589","CENTER_NAME":"EARTH","PERIAPSIS":"546.094","REF_FRAME":"TEME","COUNTRY_CODE":"US","MEAN_MOTION":"15.06400861","APOAPSIS":"548.328","BSTAR":"-0.00004737800000","CLASSIFICATION_TYPE":"U","MEAN_ANOMALY":"295.4567","REV_AT_EPOCH":"8985","MEAN_MOTION_DOT":"-0.00000987"}];
